HULIANWANG DIGUI-49     
1 65106U 25168A   26064.26314445 -.00000025  00000+0  21337-3 0  9993
2 65106  50.0049 338.7009 0007414 152.4922 207.6344 13.29338772 28864
HULIANWANG DIGUI-50     
1 65107U 25168B   26064.25474227 -.00000025  00000+0  21267-3 0  9990
2 65107  50.0019 338.6003 0008375 138.5364 221.6145 13.29339425 28868
HULIANWANG DIGUI-51     
1 65108U 25168C   26064.24637702 -.00000030  00000+0  20244-3 0  9999
2 65108  50.0056 338.6264 0009736 138.4376 221.7238 13.29339696 28867
HULIANWANG DIGUI-52     
1 65109U 25168D   26064.23813742 -.00000028  00000+0  20656-3 0  9993
2 65109  50.0050 338.5659 0009615 151.3320 208.8082 13.29338352 28869
HULIANWANG DIGUI-53     
1 65110U 25168E   26064.22978211 -.00000043  00000+0  17527-3 0  9997
2 65110  50.0057 338.5442 0008417 141.0070 219.1410 13.29338174 28867
HULIANWANG DIGUI-54     
1 65111U 25168F   26064.28008348 -.00000023  00000+0  21727-3 0  9994
2 65111  50.0008 338.0545 0010003 146.5189 213.6317 13.29335429 28874
HULIANWANG DIGUI-55     
1 65112U 25168G   26064.29653320 -.00000039  00000+0  18326-3 0  9990
2 65112  50.0013 338.1482 0011294 142.3198 217.8467 13.29338901 28879
HULIANWANG DIGUI-56     
1 65113U 25168H   26064.28819900 -.00000040  00000+0  18094-3 0  9992
2 65113  50.0005 338.0892 0010995 164.3232 195.7983 13.29338268 28878
HULIANWANG DIGUI-57     
1 65114U 25168J   26064.27175444 -.00000021  00000+0  22136-3 0  9991
2 65114  50.0033 338.0588 0008744 154.7551 205.3750 13.29335251 28888
HULIANWANG DIGUI-58     
1 65164U 25174A   26064.31213356  .00000066  00000+0  11906-3 0  9994
2 65164  86.4926 287.1114 0001257  87.5521 272.5756 13.24421084 27042
HULIANWANG DIGUI-59     
1 65165U 25174B   26064.31968447  .00000080  00000+0  15249-3 0  9993
2 65165  86.4887 287.0383 0001245  86.7842 273.3434 13.24421250 27047
HULIANWANG DIGUI-60     
1 65166U 25174C   26064.25166462  .00000086  00000+0  16593-3 0  9993
2 65166  86.4919 287.1308 0001217  88.8936 271.2338 13.24421461 27031
HULIANWANG DIGUI-61     
1 65167U 25174D   26064.25927632  .00000096  00000+0  18964-3 0  9993
2 65167  86.4928 287.1509 0001169  88.0064 272.1204 13.24420055 27035
HULIANWANG DIGUI-62     
1 65168U 25174E   26064.26678470  .00000079  00000+0  15002-3 0  9999
2 65168  86.4869 287.0376 0001172  90.2616 269.8653 13.24421372 27037
HULIANWANG DIGUI-63     
1 65169U 25174F   26064.27432459  .00000065  00000+0  11636-3 0  9990
2 65169  86.4922 287.1445 0001192  87.6566 272.4704 13.24421749 27037
HULIANWANG DIGUI-64     
1 65170U 25174G   26064.28188129  .00000062  00000+0  11135-3 0  9996
2 65170  86.4881 287.0674 0001182  90.4068 269.7201 13.24421815 27039
