[{"OBJECT_NAME":"HULIANWANG DIGUI-49","OBJECT_ID":"2025-168A","EPOCH":"2026-03-05T06:18:55.680480","MEAN_MOTION":13.29338772,"ECCENTRICITY":0.00074141,"INCLINATION":50.0049,"RA_OF_ASC_NODE":338.7009,"ARG_OF_PERICENTER":152.4922,"MEAN_ANOMALY":207.6344,"EPHEMERIS_TYPE":0,"CLASSIFICATION_TYPE":"U","NORAD_CAT_ID":65106,"ELEMENT_SET_NO":999,"REV_AT_EPOCH":2886,"BSTAR":0.00021337231,"MEAN_MOTION_DOT":-2.5e-7,"MEAN_MOTION_DDOT":0},{"OBJECT_NAME":"HULIANWANG DIGUI-50","OBJECT_ID":"2025-168B","EPOCH":"2026-03-05T06:06:49.732128","MEAN_MOTION":13.29339425,"ECCENTRICITY":0.00083754,"INCLINATION":50.0019,"RA_OF_ASC_NODE":338.6003,"ARG_OF_PERICENTER":138.5364,"MEAN_ANOMALY":221.6145,"EPHEMERIS_TYPE":0,"CLASSIFICATION_TYPE":"U","NORAD_CAT_ID":65107,"ELEMENT_SET_NO":999,"REV_AT_EPOCH":2886,"BSTAR":0.00021266548,"MEAN_MOTION_DOT":-2.5e-7,"MEAN_MOTION_DDOT":0},{"OBJECT_NAME":"HULIANWANG DIGUI-51","OBJECT_ID":"2025-168C","EPOCH":"2026-03-05T05:54:46.974528","MEAN_MOTION":13.29339696,"ECCENTRICITY":0.00097366,"INCLINATION":50.0056,"RA_OF_ASC_NODE":338.6264,"ARG_OF_PERICENTER":138.4376,"MEAN_ANOMALY":221.7238,"EPHEMERIS_TYPE":0,"CLASSIFICATION_TYPE":"U","NORAD_CAT_ID":65108,"ELEMENT_SET_NO":999,"REV_AT_EPOCH":2886,"BSTAR":0.00020244045,"MEAN_MOTION_DOT":-3.0e-7,"MEAN_MOTION_DDOT":0},{"OBJECT_NAME":"HULIANWANG DIGUI-52","OBJECT_ID":"2025-168D","EPOCH":"2026-03-05T05:42:55.073088","MEAN_MOTION":13.29338352,"ECCENTRICITY":0.00096155,"INCLINATION":50.005,"RA_OF_ASC_NODE":338.5659,"ARG_OF_PERICENTER":151.332,"MEAN_ANOMALY":208.8082,"EPHEMERIS_TYPE":0,"CLASSIFICATION_TYPE":"U","NORAD_CAT_ID":65109,"ELEMENT_SET_NO":999,"REV_AT_EPOCH":2886,"BSTAR":0.00020656146,"MEAN_MOTION_DOT":-2.8e-7,"MEAN_MOTION_DDOT":0},{"OBJECT_NAME":"HULIANWANG DIGUI-53","OBJECT_ID":"2025-168E","EPOCH":"2026-03-05T05:30:53.174304","MEAN_MOTION":13.29338174,"ECCENTRICITY":0.00084174,"INCLINATION":50.0057,"RA_OF_ASC_NODE":338.5442,"ARG_OF_PERICENTER":141.007,"MEAN_ANOMALY":219.141,"EPHEMERIS_TYPE":0,"CLASSIFICATION_TYPE":"U","NORAD_CAT_ID":65110,"ELEMENT_SET_NO":999,"REV_AT_EPOCH":2886,"BSTAR":0.00017527218,"MEAN_MOTION_DOT":-4.3e-7,"MEAN_MOTION_DDOT":0},{"OBJECT_NAME":"HULIANWANG DIGUI-54","OBJECT_ID":"2025-168F","EPOCH":"2026-03-05T06:43:19.212672","MEAN_MOTION":13.29335429,"ECCENTRICITY":0.00100035,"INCLINATION":50.0008,"RA_OF_ASC_NODE":338.0545,"ARG_OF_PERICENTER":146.5189,"MEAN_ANOMALY":213.6317,"EPHEMERIS_TYPE":0,"CLASSIFICATION_TYPE":"U","NORAD_CAT_ID":65111,"ELEMENT_SET_NO":999,"REV_AT_EPOCH":2887,"BSTAR":0.00021726617,"MEAN_MOTION_DOT":-2.3e-7,"MEAN_MOTION_DDOT":0},{"OBJECT_NAME":"HULIANWANG DIGUI-55","OBJECT_ID":"2025-168G","EPOCH":"2026-03-05T07:07:00.468480","MEAN_MOTION":13.29338901,"ECCENTRICITY":0.00112948,"INCLINATION":50.0013,"RA_OF_ASC_NODE":338.1482,"ARG_OF_PERICENTER":142.3198,"MEAN_ANOMALY":217.8467,"EPHEMERIS_TYPE":0,"CLASSIFICATION_TYPE":"U","NORAD_CAT_ID":65112,"ELEMENT_SET_NO":999,"REV_AT_EPOCH":2887,"BSTAR":0.00018325829,"MEAN_MOTION_DOT":-3.9e-7,"MEAN_MOTION_DDOT":0},{"OBJECT_NAME":"HULIANWANG DIGUI-56","OBJECT_ID":"2025-168H","EPOCH":"2026-03-05T06:55:00.393600","MEAN_MOTION":13.29338268,"ECCENTRICITY":0.0010995,"INCLINATION":50.0005,"RA_OF_ASC_NODE":338.0892,"ARG_OF_PERICENTER":164.3232,"MEAN_ANOMALY":195.7983,"EPHEMERIS_TYPE":0,"CLASSIFICATION_TYPE":"U","NORAD_CAT_ID":65113,"ELEMENT_SET_NO":999,"REV_AT_EPOCH":2887,"BSTAR":0.00018094054,"MEAN_MOTION_DOT":-4.0e-7,"MEAN_MOTION_DDOT":0},{"OBJECT_NAME":"HULIANWANG DIGUI-57","OBJECT_ID":"2025-168J","EPOCH":"2026-03-05T06:31:19.583616","MEAN_MOTION":13.29335251,"ECCENTRICITY":0.00087443,"INCLINATION":50.0033,"RA_OF_ASC_NODE":338.0588,"ARG_OF_PERICENTER":154.7551,"MEAN_ANOMALY":205.375,"EPHEMERIS_TYPE":0,"CLASSIFICATION_TYPE":"U","NORAD_CAT_ID":65114,"ELEMENT_SET_NO":999,"REV_AT_EPOCH":2888,"BSTAR":0.00022136044,"MEAN_MOTION_DOT":-2.1e-7,"MEAN_MOTION_DDOT":0},{"OBJECT_NAME":"HULIANWANG DIGUI-58","OBJECT_ID":"2025-174A","EPOCH":"2026-03-05T07:29:28.339584","MEAN_MOTION":13.24421084,"ECCENTRICITY":0.00012574,"INCLINATION":86.4926,"RA_OF_ASC_NODE":287.1114,"ARG_OF_PERICENTER":87.5521,"MEAN_ANOMALY":272.5756,"EPHEMERIS_TYPE":0,"CLASSIFICATION_TYPE":"U","NORAD_CAT_ID":65164,"ELEMENT_SET_NO":999,"REV_AT_EPOCH":2704,"BSTAR":0.00011906218,"MEAN_MOTION_DOT":6.6e-7,"MEAN_MOTION_DDOT":0},{"OBJECT_NAME":"HULIANWANG DIGUI-59","OBJECT_ID":"2025-174B","EPOCH":"2026-03-05T07:40:20.738208","MEAN_MOTION":13.2442125,"ECCENTRICITY":0.00012459,"INCLINATION":86.4887,"RA_OF_ASC_NODE":287.0383,"ARG_OF_PERICENTER":86.7842,"MEAN_ANOMALY":273.3434,"EPHEMERIS_TYPE":0,"CLASSIFICATION_TYPE":"U","NORAD_CAT_ID":65165,"ELEMENT_SET_NO":999,"REV_AT_EPOCH":2704,"BSTAR":0.00015249481,"MEAN_MOTION_DOT":8.0e-7,"MEAN_MOTION_DDOT":0},{"OBJECT_NAME":"HULIANWANG DIGUI-60","OBJECT_ID":"2025-174C","EPOCH":"2026-03-05T06:02:23.823168","MEAN_MOTION":13.24421461,"ECCENTRICITY":0.00012172,"INCLINATION":86.4919,"RA_OF_ASC_NODE":287.1308,"ARG_OF_PERICENTER":88.8936,"MEAN_ANOMALY":271.2338,"EPHEMERIS_TYPE":0,"CLASSIFICATION_TYPE":"U","NORAD_CAT_ID":65166,"ELEMENT_SET_NO":999,"REV_AT_EPOCH":2703,"BSTAR":0.00016592794,"MEAN_MOTION_DOT":8.6e-7,"MEAN_MOTION_DDOT":0},{"OBJECT_NAME":"HULIANWANG DIGUI-61","OBJECT_ID":"2025-174D","EPOCH":"2026-03-05T06:13:21.474048","MEAN_MOTION":13.24420055,"ECCENTRICITY":0.00011694,"INCLINATION":86.4928,"RA_OF_ASC_NODE":287.1509,"ARG_OF_PERICENTER":88.0064,"MEAN_ANOMALY":272.1204,"EPHEMERIS_TYPE":0,"CLASSIFICATION_TYPE":"U","NORAD_CAT_ID":65167,"ELEMENT_SET_NO":999,"REV_AT_EPOCH":2703,"BSTAR":0.00018964022,"MEAN_MOTION_DOT":9.6e-7,"MEAN_MOTION_DDOT":0},{"OBJECT_NAME":"HULIANWANG DIGUI-62","OBJECT_ID":"2025-174E","EPOCH":"2026-03-05T06:24:10.198080","MEAN_MOTION":13.24421372,"ECCENTRICITY":0.00011725,"INCLINATION":86.4869,"RA_OF_ASC_NODE":287.0376,"ARG_OF_PERICENTER":90.2616,"MEAN_ANOMALY":269.8653,"EPHEMERIS_TYPE":0,"CLASSIFICATION_TYPE":"U","NORAD_CAT_ID":65168,"ELEMENT_SET_NO":999,"REV_AT_EPOCH":2703,"BSTAR":0.00015002148,"MEAN_MOTION_DOT":7.9e-7,"MEAN_MOTION_DDOT":0},{"OBJECT_NAME":"HULIANWANG DIGUI-63","OBJECT_ID":"2025-174F","EPOCH":"2026-03-05T06:35:01.644576","MEAN_MOTION":13.24421749,"ECCENTRICITY":0.00011928,"INCLINATION":86.4922,"RA_OF_ASC_NODE":287.1445,"ARG_OF_PERICENTER":87.6566,"MEAN_ANOMALY":272.4704,"EPHEMERIS_TYPE":0,"CLASSIFICATION_TYPE":"U","NORAD_CAT_ID":65169,"ELEMENT_SET_NO":999,"REV_AT_EPOCH":2703,"BSTAR":0.00011635794,"MEAN_MOTION_DOT":6.5e-7,"MEAN_MOTION_DDOT":0},{"OBJECT_NAME":"HULIANWANG DIGUI-64","OBJECT_ID":"2025-174G","EPOCH":"2026-03-05T06:45:54.543456","MEAN_MOTION":13.24421815,"ECCENTRICITY":0.00011825,"INCLINATION":86.4881,"RA_OF_ASC_NODE":287.0674,"ARG_OF_PERICENTER":90.4068,"MEAN_ANOMALY":269.7201,"EPHEMERIS_TYPE":0,"CLASSIFICATION_TYPE":"U","NORAD_CAT_ID":65170,"ELEMENT_SET_NO":999,"REV_AT_EPOCH":2703,"BSTAR":0.0001113484,"MEAN_MOTION_DOT":6.2e-7,"MEAN_MOTION_DDOT":0}]
